FENGYUN 1C DEB          
1 30756U 99025ATS 24365.62121508  .00010603  00000+0  52799-2 0  9994
2 30756  99.0159  62.7645 0076388 222.6178 296.0385 14.15614587915040
FENGYUN 1C DEB          
1 30758U 99025ATU 24366.78377927  .00007741  00000+0  39956-2 0  9991
2 30758  98.9984 115.6197 0041227 262.1101 251.6167 14.14878536915944
FENGYUN 1C DEB          
1 30759U 99025ATV 24365.68068763  .00026054  00000+0  73963-2 0  9999
2 30759  99.2649  73.4775 0010963 115.3724  36.1604 14.45330022926562
FENGYUN 1C DEB          
1 30760U 99025ATW 24366.28148038  .00001134  00000+0  72497-3 0  9996
2 30760  98.8117   6.6543 0052543 232.6449 126.9926 14.04796858913577
FENGYUN 1C DEB          
1 30761U 99025ATX 24366.43144521  .00007340  00000+0  25724-2 0  9992
2 30761  98.9649 273.6937 0086769 247.5840 111.6135 14.33261363927768
FENGYUN 1C DEB          
1 30762U 99025ATY 24366.75637003  .00001842  00000+0  11332-2 0  9991
2 30762  98.8568   3.2064 0199782 171.8095   2.5376 13.97367816908041
FENGYUN 1C DEB          
1 30763U 99025ATZ 24366.82211657  .00038710  00000+0  10632-1 0  9998
2 30763  98.8999  50.7178 0029064 239.8334 180.1722 14.46584177921183
FENGYUN 1C DEB          
1 30764U 99025AUA 24366.49341660  .00039217  00000+0  22829-2 0  9995
2 30764  98.7624 277.3135 0116545 254.7296 104.1020 15.06280188959744
FENGYUN 1C DEB          
1 30765U 99025AUB 24365.94767713  .00004182  00000+0  22025-2 0  9997
2 30765  98.8237  51.0181 0069933 116.9426   6.6067 14.13246436919216
FENGYUN 1C DEB          
1 30766U 99025AUC 24366.79595251  .00004515  00000+0  25803-2 0  9995
2 30766  98.6711  14.1514 0083986 334.7144 199.6635 14.08291221579259
FENGYUN 1C DEB          
1 30768U 99025AUE 24366.90665611  .00020407  00000+0  62872-2 0  9993
2 30768  98.6312  85.6164 0027450  60.5380   1.1237 14.41223694928778
FENGYUN 1C DEB          
1 30770U 99025AUG 24365.85160016  .00001926  00000+0  10151-2 0  9996
2 30770  98.6608  15.9381 0013558 194.0932 289.2261 14.15054080920002
FENGYUN 1C DEB          
1 30771U 99025AUH 24364.82708992  .00021943  00000+0  76301-2 0  9994
2 30771  98.8907 320.8576 0024493 248.6748 111.1821 14.35265993920589
FENGYUN 1C DEB          
1 30802U 99025AUL 24366.44070896  .00011204  00000+0  45156-2 0  9997
2 30802  98.8513  81.5829 0019287 326.0587  94.0249 14.28036756922520
FENGYUN 1C DEB          
1 30803U 99025AUM 24366.31681428  .00006110  00000+0  33695-2 0  9998
2 30803  99.2682  23.3651 0110209  87.9236  33.9756 14.08825092911160
FENGYUN 1C DEB          
1 30804U 99025AUN 24365.86635649  .00005762  00000+0  11177-2 0  9995
2 30804  98.9398  42.8329 0191423 160.2917  12.7379 14.52589778944379
FENGYUN 1C DEB          
1 30805U 99025AUP 24366.08625014  .00003755  00000+0  24319-2 0  9998
2 30805  98.8514  53.1223 0071653 170.3056 220.6230 14.02057131911014
FENGYUN 1C DEB          
1 30806U 99025AUQ 24362.38022709  .00001793  00000+0  16373-2 0  9991
2 30806  99.0700  43.1877 0268027 329.9735  39.6140 13.69504589888981
FENGYUN 1C DEB          
1 30809U 99025AUT 24366.45287890  .00010713  00000+0  45029-2 0  9992
2 30809  98.8006  87.5497 0054392  99.7175 261.0153 14.25187218921474
FENGYUN 1C DEB          
1 30810U 99025AUU 24365.75313791  .00021253  00000+0  12799-1 0  9994
2 30810  98.6616 189.1569 0203081 305.5778  52.6607 13.96975544895245
FENGYUN 1C DEB          
1 30811U 99025AUV 24361.17088769  .00004011  00000+0  41411-2 0  9998
2 30811  98.8099  69.0468 0283893 242.3001 114.9076 13.60252250881670
