OBJECT_NAME,OBJECT_ID,EPOCH,MEAN_MOTION,ECCENTRICITY,INCLINATION,RA_OF_ASC_NODE,ARG_OF_PERICENTER,MEAN_ANOMALY,EPHEMERIS_TYPE,CLASSIFICATION_TYPE,NORAD_CAT_ID,ELEMENT_SET_NO,REV_AT_EPOCH,BSTAR,MEAN_MOTION_DOT,MEAN_MOTION_DDOT,SEMIMAJOR_AXIS,DEBRIS_TYPE,ORBITAL_PERIOD,ORBITAL_PERIOD_HOURS,ALTITUDE,PERIGEE,APOGEE
FENGYUN 1C DEB,1999-025ATS,2024-12-30T14:54:32.982912,14.15614587,0.0076388,99.0159,62.7645,222.6178,296.0385,0,U,30756,999,91504,0.0052799,0.00010603,0.0,7218.359182649864,FENGYUN 1C,6103.359535526855,1.6953776487574599,847.3591826498641,7163.219580525439,7273.4987847742905
FENGYUN 1C DEB,1999-025ATU,2024-12-31T18:48:38.528928,14.14878536,0.0041227,98.9984,115.6197,262.1101,251.6167,0,U,30758,999,91594,0.0039956,7.741e-05,0.0,7220.862398675107,FENGYUN 1C,6106.534637682399,1.6962596215784442,849.8623986751072,7191.092949264089,7250.631848086125
FENGYUN 1C DEB,1999-025ATV,2024-12-30T16:20:11.411232,14.45330022,0.0010963,99.2649,73.4775,115.3724,36.1604,0,U,30759,999,92656,0.0073963,0.00026054,0.0,7119.079215394068,FENGYUN 1C,5977.876787089504,1.6605213297470847,748.0792153940683,7111.274568850232,7126.883861937905
FENGYUN 1C DEB,1999-025ATW,2024-12-31T06:45:19.904832,14.04796858,0.0052543,98.8117,6.6543,232.6449,126.9926,0,U,30760,999,91357,0.00072497,1.134e-05,0.0,7255.368745723638,FENGYUN 1C,6150.358850103125,1.7084330139175348,884.3687457236383,7217.246861722982,7293.490629724294
FENGYUN 1C DEB,1999-025ATX,2024-12-31T10:21:16.866144,14.33261363,0.0086769,98.9649,273.6937,247.584,111.6135,0,U,30761,999,92776,0.0025724,7.34e-05,0.0,7158.987084955943,FENGYUN 1C,6028.213005137264,1.674503612538129,787.9870849559429,7096.8692699184885,7221.104899993397
FENGYUN 1C DEB,1999-025ATY,2024-12-31T18:09:10.370592,13.97367816,0.0199782,98.8568,3.2064,171.8095,2.5376,0,U,30762,999,90804,0.0011332,1.842e-05,0.0,7281.061237541956,FENGYUN 1C,6183.0569512682705,1.7175158197967417,910.061237541956,7135.598739926096,7426.523735157816
FENGYUN 1C DEB,1999-025ATZ,2024-12-31T19:43:50.871648,14.46584177,0.0029064,98.8999,50.7178,239.8334,180.1722,0,U,30763,999,92118,0.010632,0.0003871,0.0,7114.963902665758,FENGYUN 1C,5972.6941062741635,1.6590816961872676,743.9639026657578,7094.28497157905,7135.642833752466
FENGYUN 1C DEB,1999-025AUA,2024-12-31T11:50:31.194240,15.06280188,0.0116545,98.7624,277.3135,254.7296,104.102,0,U,30764,999,95974,0.0022829,0.00039217,0.0,6925.715788802146,FENGYUN 1C,5735.987804280516,1.5933299456334766,554.7157888021457,6845.000034141551,7006.43154346274
FENGYUN 1C DEB,1999-025AUB,2024-12-30T22:44:39.304032,14.13246436,0.0069933,98.8237,51.0181,116.9426,6.6067,0,U,30765,999,91921,0.0022025,4.182e-05,0.0,7226.420713213208,FENGYUN 1C,6113.586822586802,1.698218561829667,855.4207132132078,7175.884185239494,7276.957241186921
FENGYUN 1C DEB,1999-025AUC,2024-12-31T19:06:10.296864,14.08291221,0.0083986,98.6711,14.1514,334.7144,199.6635,0,U,30766,999,57925,0.0025803,4.515e-05,0.0,7243.36204905192,FENGYUN 1C,6135.098095734961,1.7041939154819337,872.3620490519197,7182.527948546752,7304.196149557088
FENGYUN 1C DEB,1999-025AUE,2024-12-31T21:45:35.087904,14.41223694,0.002745,98.6312,85.6164,60.538,1.1237,0,U,30768,999,92877,0.0062872,0.00020407,0.0,7132.5952342708215,FENGYUN 1C,5994.908926467705,1.6652524795743624,761.5952342708215,7113.016260352748,7152.174208188895
FENGYUN 1C DEB,1999-025AUG,2024-12-30T20:26:18.253824,14.1505408,0.0013558,98.6608,15.9381,194.0932,289.2261,0,U,30770,999,92000,0.0010151,1.926e-05,0.0,7220.265198753469,FENGYUN 1C,6105.777093831891,1.6960491927310808,849.2651987534691,7210.475963196999,7230.054434309939
FENGYUN 1C DEB,1999-025AUH,2024-12-29T19:51:00.569088,14.35265993,0.0024493,98.8907,320.8576,248.6748,111.1821,0,U,30771,999,92058,0.0076301,0.00021943,0.0,7152.319580759435,FENGYUN 1C,6019.7934252855675,1.6721648403571021,781.3195807594348,7134.801404410281,7169.837757108589
FENGYUN 1C DEB,1999-025AUL,2024-12-31T10:34:37.254144,14.28036756,0.0019287,98.8513,81.5829,326.0587,94.0249,0,U,30802,999,92252,0.0045156,0.00011204,0.0,7176.437674087821,FENGYUN 1C,6050.267790304246,1.6806299417511794,805.4376740878206,7162.596478745807,7190.278869429833
FENGYUN 1C DEB,1999-025AUM,2024-12-31T07:36:12.753792,14.08825092,0.0110209,99.2682,23.3651,87.9236,33.9756,0,U,30803,999,91116,0.0033695,6.11e-05,0.0,7241.532029964055,FENGYUN 1C,6132.773214545616,1.70354811515156,870.5320299640553,7161.723829615024,7321.340230313087
FENGYUN 1C DEB,1999-025AUN,2024-12-30T20:47:33.200736,14.52589778,0.0191423,98.9398,42.8329,160.2917,12.7379,0,U,30804,999,94437,0.0011177,5.762e-05,0.0,7095.339581633604,FENGYUN 1C,5948.000542929169,1.6522223730358803,724.3395816336042,6959.518462760099,7231.160700507109
FENGYUN 1C DEB,1999-025AUP,2024-12-31T02:04:12.012096,14.02057131,0.0071653,98.8514,53.1223,170.3056,220.623,0,U,30805,999,91101,0.0024319,3.755e-05,0.0,7264.817367588625,FENGYUN 1C,6162.377122275315,1.7117714228542542,893.8173675886246,7212.762771704642,7316.871963472608
FENGYUN 1C DEB,1999-025AUQ,2024-12-27T09:07:31.620576,13.69504589,0.0268027,99.07,43.1877,329.9735,39.614,0,U,30806,999,88898,0.0016373,1.793e-05,0.0,7379.487137308646,FENGYUN 1C,6308.854207276675,1.7524595020212985,1008.4871373086462,7181.696957413504,7577.277317203789
FENGYUN 1C DEB,1999-025AUT,2024-12-31T10:52:08.736960,14.25187218,0.0054392,98.8006,87.5497,99.7175,261.0153,0,U,30809,999,92147,0.0045029,0.00010713,0.0,7186.000264946966,FENGYUN 1C,6062.364775009765,1.6839902152804904,815.0002649469661,7146.9141723058665,7225.086357588067
FENGYUN 1C DEB,1999-025AUU,2024-12-30T18:04:31.115424,13.96975544,0.0203081,98.6616,189.1569,305.5778,52.6607,0,U,30810,999,89524,0.012799,0.00021253,0.0,7282.424192827353,FENGYUN 1C,6184.793159269051,1.7179980997969586,911.4241928273532,7134.531994076996,7430.31639157771
FENGYUN 1C DEB,1999-025AUV,2024-12-26T04:06:04.696416,13.6025225,0.0283893,98.8099,69.0468,242.3001,114.9076,0,U,30811,999,88167,0.0041411,4.011e-05,0.0,7412.912480084707,FENGYUN 1C,6351.766584614995,1.7643796068374986,1041.9124800847067,7202.465083813839,7623.359876355575
